[
    {
        "Altitude(m)": 604969.0891575039,
        "Argument of Periapsis(deg)": 0.0,
        "Eccentricity": 0.0,
        "Inclination(deg)": 60.0,
        "Latitude(deg)": -0.0926783763604593,
        "Longitude(deg)": -15.022472219429947,
        "Mean Anomaly(deg)": 0.0,
        "RAAN(deg)": 85.00000000000001,
        "Satellite Name": "Test1 374",
        "Satellite Number": 374,
        "Semi-Major Axis(m)": 6980739.136638005,
        "Time(s)": 0
    },
    {
        "Altitude(m)": 604900.0285335005,
        "Argument of Periapsis(deg)": 0.00010418945913296404,
        "Eccentricity": 0.0,
        "Inclination(deg)": 60.0,
        "Latitude(deg)": 0.4477480336070624,
        "Longitude(deg)": -14.754350215230636,
        "Mean Anomaly(deg)": 0.6201061454618275,
        "RAAN(deg)": 84.99957995086027,
        "Satellite Name": "Test1 374",
        "Satellite Number": 374,
        "Semi-Major Axis(m)": 6980739.136638005,
        "Time(s)": 10
    }
]